ADRAS-J                 
1 58992U 24034A   24095.48598590  .00003119  00000+0  29997-3 0  9996
2 58992  98.2061  65.2349 0042880 292.3612  67.3064 14.93134605  6869
